[
	{"year": "2019", "company": "UAB HEALTH SYSTEM", "ia": "0", "ir": "0", "ca": "0", "cr": "1", "code": "56", "taxid": "", "state": "AL", "city": "BIRMINGHAM", "zip": "35233"},
{"year": "2019", "company": "ADVANCED ONCOLOGY GROUP LLC", "ia": "1", "ir": "0", "ca": "0", "cr": "0", "code": "62", "taxid": "", "state": "CA", "city": "ARCADIA", "zip": "91007"},
{"year": "2019", "company": "APEXLOGISTICS INTL SFO INC", "ia": "0", "ir": "1", "ca": "0", "cr": "0", "code": "54", "taxid": "", "state": "CA", "city": "COMPTON", "zip": "90221"},
{"year": "2019", "company": "DOTUM OYENUGA D/B/A ANALYSIS & SOL", "ia": "0", "ir": "1", "ca": "0", "cr": "0", "code": "54", "taxid": "", "state": "CA", "city": "LOS ANGELES", "zip": "90034"},
{"year": "2019", "company": "EVALUATOR GROUP INC", "ia": "1", "ir": "0", "ca": "0", "cr": "0", "code": "54", "taxid": "", "state": "CO", "city": "BOULDER", "zip": "80301"},
{"year": "2019", "company": "CRITICAL MIX", "ia": "0", "ir": "0", "ca": "1", "cr": "0", "code": "54", "taxid": "", "state": "CT", "city": "WESTPORT", "zip": "06880"},
{"year": "2019", "company": "JC MACHINE WORKS CORP", "ia": "0", "ir": "0", "ca": "1", "cr": "0", "code": "23", "taxid": "", "state": "FL", "city": "DORAL", "zip": "33178"},
{"year": "2019", "company": "JUDGE SOFTWARE PROF INC", "ia": "0", "ir": "0", "ca": "1", "cr": "0", "code": "54", "taxid": "", "state": "FL", "city": "JACKSONVILLE", "zip": "32258"},
{"year": "2019", "company": "DEFENSESTORM INC", "ia": "1", "ir": "0", "ca": "0", "cr": "0", "code": "51", "taxid": "", "state": "GA", "city": "ALPHARETTA", "zip": "30005"},
{"year": "2019", "company": "COMMUNITY CONSOLIDATED SCH DIST NO", "ia": "1", "ir": "0", "ca": "0", "cr": "0", "code": "61", "taxid": "", "state": "IL", "city": "BLOOMINGDALE", "zip": "60108"},
{"year": "2019", "company": "INDIANA INTERNAL MED CONSULTANTS", "ia": "0", "ir": "0", "ca": "1", "cr": "0", "code": "62", "taxid": "", "state": "IN", "city": "GREENWOOD", "zip": "46143"},
{"year": "2019", "company": "STRUCTURAL DESIGH INCORPORATED D/B", "ia": "1", "ir": "0", "ca": "0", "cr": "0", "code": "54", "taxid": "", "state": "MI", "city": "ANN ARBOR", "zip": "48104"},
{"year": "2019", "company": "F H R INC DBA MI LANGUAGE CTR", "ia": "0", "ir": "1", "ca": "0", "cr": "0", "code": "61", "taxid": "", "state": "MI", "city": "ANN ARBOR", "zip": "48104"},
{"year": "2019", "company": "LEMON TREE MEDIA LLC", "ia": "1", "ir": "0", "ca": "0", "cr": "0", "code": "54", "taxid": "", "state": "NC", "city": "RALEIGH", "zip": "27615"},
{"year": "2019", "company": "DOOSAN INFRACORE NORTH AMERICA LLC", "ia": "0", "ir": "0", "ca": "1", "cr": "0", "code": "33", "taxid": "", "state": "ND", "city": "WEST FARGO", "zip": "58078"},
{"year": "2019", "company": "MICRO DATA SYSTEMS INC", "ia": "0", "ir": "1", "ca": "0", "cr": "0", "code": "54", "taxid": "", "state": "NJ", "city": "HOLMDEL", "zip": "07733"},
{"year": "2019", "company": "NETROCON SYSTEMS LLC DBA NETROCON", "ia": "0", "ir": "0", "ca": "1", "cr": "0", "code": "54", "taxid": "", "state": "NJ", "city": "PRINCETON", "zip": "08540"},
{"year": "2019", "company": "NORWEGIAN CHRISTIAN HOME HLTH CTR", "ia": "0", "ir": "0", "ca": "0", "cr": "1", "code": "62", "taxid": "", "state": "NY", "city": "BROOKLYN", "zip": "11219"},
{"year": "2019", "company": "CORNELL UNIV GLOBAL LEARNING", "ia": "2", "ir": "0", "ca": "2", "cr": "0", "code": "61", "taxid": "", "state": "NY", "city": "ITHACA", "zip": "14853"},
{"year": "2019", "company": "LODGING SOLUTIONS LLC DBA ACCOMIDA", "ia": "0", "ir": "0", "ca": "1", "cr": "0", "code": "56", "taxid": "", "state": "NY", "city": "MELVILLE", "zip": "11747"},
{"year": "2019", "company": "CRUSHH APP LLC", "ia": "1", "ir": "0", "ca": "0", "cr": "0", "code": "51", "taxid": "", "state": "NY", "city": "NEW YORK", "zip": "10003"},
{"year": "2019", "company": "KOSTOW GREENWWOOD ARCHITECTS LLP", "ia": "0", "ir": "0", "ca": "1", "cr": "0", "code": "54", "taxid": "", "state": "NY", "city": "NEW YORK", "zip": "10012"},
{"year": "2019", "company": "WK WEBSTER OVERSEAS LTD", "ia": "1", "ir": "0", "ca": "0", "cr": "0", "code": "52", "taxid": "", "state": "NY", "city": "NEW YORK", "zip": "10038"},
{"year": "2019", "company": "TERADA OPERATIONS INC", "ia": "1", "ir": "0", "ca": "0", "cr": "0", "code": "54", "taxid": "", "state": "OH", "city": "MIAMISBURG", "zip": "45342"},
{"year": "2019", "company": "VIHAR F W LP BEST WESTERN INN", "ia": "0", "ir": "0", "ca": "1", "cr": "0", "code": "72", "taxid": "", "state": "PA", "city": "FORT WASHINGTON", "zip": "19034"},
{"year": "2019", "company": "BLUE OCEAN INTERNATIONAL BANK LLC", "ia": "1", "ir": "0", "ca": "0", "cr": "0", "code": "52", "taxid": "", "state": "PR", "city": "SAN JUAN", "zip": "00918"},
{"year": "2019", "company": "CBL & ASSOCIATES MANAGEMENT INC", "ia": "0", "ir": "1", "ca": "0", "cr": "0", "code": "53", "taxid": "", "state": "TN", "city": "CHATTANOOGA", "zip": "37421"},
{"year": "2019", "company": "LANE BOOT COMPANY", "ia": "0", "ir": "0", "ca": "1", "cr": "0", "code": "31", "taxid": "", "state": "TX", "city": "ARLINGTON", "zip": "76011"},
{"year": "2019", "company": "SUPREME PHARMACY LLC DBA METRORX", "ia": "1", "ir": "0", "ca": "0", "cr": "0", "code": "44", "taxid": "", "state": "TX", "city": "HOUSTON", "zip": "77057"},
{"year": "2019", "company": "JMP PETROLEUM TECHNOLOGIES LLC", "ia": "0", "ir": "1", "ca": "0", "cr": "0", "code": "33", "taxid": "", "state": "TX", "city": "HUMBLE", "zip": "77338"},
{"year": "2019", "company": "MK ASSOCIATES INC", "ia": "0", "ir": "0", "ca": "1", "cr": "0", "code": "54", "taxid": "", "state": "TX", "city": "PLANO", "zip": "75075"},
{"year": "2019", "company": "ALAMO AREA RAPE CRISIS CENTER", "ia": "0", "ir": "0", "ca": "1", "cr": "0", "code": "62", "taxid": "", "state": "TX", "city": "SAN ANTONIO", "zip": "78228"},
{"year": "2019", "company": "CONCEPTS INFORMATION TECH", "ia": "0", "ir": "0", "ca": "1", "cr": "0", "code": "99", "taxid": "", "state": "VA", "city": "VIENNA", "zip": "22182"},
{"year": "2019", "company": "MARKET SOLUTIONS ASIA LLC", "ia": "0", "ir": "1", "ca": "0", "cr": "0", "code": "54", "taxid": "", "state": "WA", "city": "BRUSH PRAIRIE", "zip": "98606"},
{"year": "2019", "company": "A2Z DEVELOPMENT CENTER D/B/A LAB 1", "ia": "1", "ir": "0", "ca": "0", "cr": "0", "code": "42", "taxid": "", "state": "WA", "city": "SEATTLE", "zip": "98121"},
{"year": "2019", "company": "TD BANK NATIONAL ASSOCIATION", "ia": "0", "ir": "0", "ca": "1", "cr": "0", "code": "52", "taxid": "7770", "state": "NJ", "city": "MOUNT LAUREL", "zip": "08054"},
{"year": "2019", "company": "SOUTHERN MAINE HEALTH CARE", "ia": "0", "ir": "0", "ca": "1", "cr": "0", "code": "62", "taxid": "9500", "state": "ME", "city": "BIDDEFORD", "zip": "04005"},
{"year": "2019", "company": "THE MOUNT DESERT ISLAND BIOLOGICAL", "ia": "1", "ir": "0", "ca": "0", "cr": "0", "code": "54", "taxid": "2467", "state": "ME", "city": "SALSBURY COVE", "zip": "04672"},
{"year": "2019", "company": "COLBY COLLEGE", "ia": "1", "ir": "0", "ca": "0", "cr": "0", "code": "61", "taxid": "1497", "state": "ME", "city": "WATERVILLE", "zip": "04901"},
{"year": "2019", "company": "EASTERN MAINE MEDICAL CENTER", "ia": "2", "ir": "0", "ca": "0", "cr": "0", "code": "62", "taxid": "1501", "state": "ME", "city": "BANGOR", "zip": "04401"},
{"year": "2019", "company": "THE JACKSON LABORATORY", "ia": "3", "ir": "0", "ca": "11", "cr": "0", "code": "54", "taxid": "1513", "state": "ME", "city": "BAR HARBOR", "zip": "04609"},
{"year": "2019", "company": "MAINE CENTRAL INSTITUTE", "ia": "0", "ir": "0", "ca": "1", "cr": "0", "code": "61", "taxid": "2438", "state": "ME", "city": "PITTSFIELD", "zip": "04967"},
{"year": "2019", "company": "JOHN HANCOCK LIFE INSURANCE CO USA", "ia": "2", "ir": "0", "ca": "9", "cr": "0", "code": "52", "taxid": "3346", "state": "MA", "city": "BOSTON", "zip": "02210"},
{"year": "2019", "company": "REDINGTON FAIRVIEW GENERAL HOSPITA", "ia": "0", "ir": "0", "ca": "1", "cr": "0", "code": "62", "taxid": "4446", "state": "ME", "city": "SKOWHEGAN", "zip": "04976"},
{"year": "2019", "company": "WOODARD & CURRAN INC", "ia": "0", "ir": "0", "ca": "1", "cr": "0", "code": "54", "taxid": "3222", "state": "ME", "city": "PORTLAND", "zip": "04102"},
{"year": "2019", "company": "THE AROOSTOOK MEDICAL CENTER", "ia": "0", "ir": "0", "ca": "1", "cr": "0", "code": "62", "taxid": "2148", "state": "ME", "city": "PRESQUE ISLE", "zip": "04769"},
{"year": "2019", "company": "PINES HEALTH SVCS", "ia": "0", "ir": "0", "ca": "1", "cr": "0", "code": "62", "taxid": "6890", "state": "ME", "city": "CARIBOU", "zip": "04736"},
{"year": "2019", "company": "IDEXX LABORATORIES INC", "ia": "0", "ir": "0", "ca": "3", "cr": "0", "code": "54", "taxid": "3723", "state": "ME", "city": "WESTBROOK", "zip": "04092"},
{"year": "2019", "company": "STROUDWATER ASSOCIATES", "ia": "0", "ir": "0", "ca": "1", "cr": "0", "code": "54", "taxid": "9937", "state": "ME", "city": "PORTLAND", "zip": "04102"},
{"year": "2019", "company": "BAKER NEWMAN NOYES PA LLC", "ia": "0", "ir": "0", "ca": "1", "cr": "0", "code": "54", "taxid": "4526", "state": "ME", "city": "PORTLAND", "zip": "04101"},
{"year": "2019", "company": "TRC ENGINEERS LLC", "ia": "1", "ir": "0", "ca": "0", "cr": "0", "code": "54", "taxid": "6475", "state": "MA", "city": "BOSTON", "zip": "02210"},
{"year": "2019", "company": "TRC ENGINEERS LLC", "ia": "0", "ir": "0", "ca": "2", "cr": "0", "code": "54", "taxid": "6475", "state": "ME", "city": "AUGUSTA", "zip": "04330"},
{"year": "2019", "company": "WEX INC", "ia": "2", "ir": "0", "ca": "0", "cr": "0", "code": "52", "taxid": "6993", "state": "ME", "city": "SOUTH PORTLAND", "zip": "04106"},
{"year": "2019", "company": "WOOD GROUP USA INC", "ia": "1", "ir": "0", "ca": "0", "cr": "0", "code": "54", "taxid": "1791", "state": "TX", "city": "HOUSTON", "zip": "77084"},
{"year": "2019", "company": "ROCHA & COMPANY PC", "ia": "0", "ir": "0", "ca": "1", "cr": "0", "code": "54", "taxid": "2424", "state": "MD", "city": "GAITHERSBURG", "zip": "20878"},
{"year": "2019", "company": "EVERCORE PARTNERS SERVICES E LLC", "ia": "1", "ir": "1", "ca": "4", "cr": "0", "code": "52", "taxid": "2543", "state": "NY", "city": "NEW YORK", "zip": "10055"},
{"year": "2019", "company": "BROOKS SCARPA ARCHITECTS INC", "ia": "0", "ir": "0", "ca": "1", "cr": "0", "code": "54", "taxid": "2842", "state": "CA", "city": "LOS ANGELES", "zip": "90043"},
{"year": "2019", "company": "KEBOK COM LLC", "ia": "1", "ir": "0", "ca": "0", "cr": "0", "code": "54", "taxid": "7070", "state": "MI", "city": "TROY", "zip": "48098"},
{"year": "2019", "company": "DREAMLAND PRESCHOOL INC", "ia": "0", "ir": "1", "ca": "0", "cr": "0", "code": "62", "taxid": "8393", "state": "CA", "city": "IRVINE", "zip": "92604"},
{"year": "2019", "company": "ARIZONA PRODUCTION & PACKAGING LLC", "ia": "1", "ir": "0", "ca": "0", "cr": "0", "code": "33", "taxid": "9957", "state": "AZ", "city": "TEMPE", "zip": "85283"},
{"year": "2019", "company": "SC & ASSOCIATES LLP", "ia": "1", "ir": "0", "ca": "0", "cr": "0", "code": "54", "taxid": "2318", "state": "NY", "city": "GREAT NECK", "zip": "11021"}
]
